STARLINK-30218          
1 57604U 23119C   24042.70628528  .00002860  00000+0  22672-3 0  9995
2 57604  43.0010 235.0397 0001179 299.2918  60.7807 15.02535662 29216
STARLINK-30138          
1 57605U 23119D   24043.50069214  .00014898  00000+0  11146-2 0  9993
2 57605  43.0023 230.6831 0001467 291.5856  68.4830 15.02570006 29325
STARLINK-30255          
1 57606U 23119E   24042.74169656 -.00005282  00000+0 -37647-3 0  9994
2 57606  43.0012 234.4522 0000932 173.5721 186.5134 15.02509766 29222
STARLINK-30252          
1 57607U 23119F   24042.77970644 -.00000393  00000+0 -14033-4 0  9998
2 57607  43.0030 221.9895 0001566 252.4353 107.6318 15.02541105 29376
STARLINK-30258          
1 57608U 23119G   24042.69296080  .00003759  00000+0  29311-3 0  9996
2 57608  43.0023 234.9419 0001272 280.9599  79.1100 15.02545608 29214
STARLINK-30174          
1 57609U 23119H   24042.95217323  .00031898  00000+0  23600-2 0  9998
2 57609  43.0026 233.4472 0001649 308.7456  51.3239 15.02626186 29249
STARLINK-30248          
1 57610U 23119J   24042.88906678  .00001861  00000+0  15280-3 0  9993
2 57610  43.0015 233.8317 0001439 281.5292  78.5389 15.02540633 29243
STARLINK-30052          
1 57611U 23119K   24042.88240609  .00001956  00000+0  15978-3 0  9998
2 57611  43.0006 233.7811 0001282 281.5438  78.5261 15.02539929 29223
STARLINK-30245          
1 57612U 23119L   24042.87907369  .00003878  00000+0  30187-3 0  9995
2 57612  43.0009 233.7568 0001229 269.8644  90.2057 15.02549821 29243
STARLINK-30041          
1 57613U 23119M   24042.74278438  .00007220  00000+0  54863-3 0  9992
2 57613  43.0035 234.4526 0002045 249.1935 110.8689 15.02563313 29226
STARLINK-30244          
1 57614U 23119N   24042.87241072 -.00000036  00000+0  12387-4 0  9996
2 57614  43.0015 233.7057 0001331 267.9171  92.1519 15.02534252 29249
STARLINK-30246          
1 57615U 23119P   24042.73724075  .00001246  00000+0  10730-3 0  9993
2 57615  43.0009 234.3968 0001333 270.5754  89.4936 15.02537620 29222
STARLINK-30075          
1 57616U 23119Q   24042.73289851 -.00008704  00000+0 -63005-3 0  9993
2 57616  42.9999 235.2374 0001663 259.4635 100.6020 15.02537216 29209
STARLINK-30148          
1 57617U 23119R   24043.52731982 -.00001002  00000+0 -59101-4 0  9996
2 57617  43.0018 230.8814 0001313 264.9510  95.1182 15.02532140 29320
STARLINK-30249          
1 57618U 23119S   24043.52400292  .00006714  00000+0  51159-3 0  9991
2 57618  43.0030 230.8564 0001737 275.6710  84.3934 15.02537686 29277
STARLINK-30141          
1 57620U 23119U   24043.51289326  .00000810  00000+0  75097-4 0  9995
2 57620  43.0047 230.7702 0002745 252.4477 107.6065 15.02529958 29271
STARLINK-30150          
1 57621U 23119V   24042.91572492 -.00002668  00000+0 -18255-3 0  9995
2 57621  43.0079 234.0334 0002894 266.7843  93.2668 15.02516698 29237
STARLINK-30056          
1 57622U 23119W   24043.50621871  .00028509  00000+0  21611-2 0  9997
2 57622  43.0011 230.6984 0001558 271.5726  88.4937 15.01753094 29324
STARLINK-30100          
1 57623U 23119X   24042.70960911  .00004185  00000+0  32462-3 0  9991
2 57623  43.0019 235.0625 0002108 253.0672 106.9939 15.02541012 29213
STARLINK-30309          
1 57632U 23122A   24042.74926432  .00002007  00000+0  16358-3 0  9996
2 57632  43.0015 248.0371 0001391 268.9668  91.1015 15.02539408 28310
STARLINK-30306          
1 57633U 23122B   24042.74593935  .00007444  00000+0  56515-3 0  9994
2 57633  43.0012 248.0129 0001335 277.2537  82.8154 15.02564667 28311
STARLINK-30323          
1 57634U 23122C   24042.74055552  .00006820  00000+0  51909-3 0  9992
2 57634  43.0002 234.3842 0001539 307.9781  52.0922 15.02559821 28474
STARLINK-30329          
1 57635U 23122D   24042.94205628  .00009509  00000+0  71817-3 0  9993
2 57635  43.0020 246.9041 0001385 279.9974  80.0712 15.02527843 28282
STARLINK-30330          
1 57636U 23122E   24042.73927521  .00001583  00000+0  13222-3 0  9994
2 57636  43.0019 247.9610 0001448 253.1816 106.8868 15.02541529 28313
STARLINK-30311          
1 57637U 23122F   24042.86557814  .00010074  00000+0  75929-3 0  9990
2 57637  43.0017 247.1892 0001463 276.9117  83.1558 15.02559828 28314
STARLINK-30328          
1 57638U 23122G   24042.88016630  .00004272  00000+0  33100-3 0  9997
2 57638  43.0002 233.6526 0001140 265.7982  94.2730 15.02549691 28481
STARLINK-30326          
1 57639U 23122H   24043.01838218  .00017500  00000+0  13063-2 0  9991
2 57639  42.9997 245.7565 0001851 271.5969  88.4661 15.02564473 28358
STARLINK-30324          
1 57640U 23122J   24042.85891256  .00001586  00000+0  13246-3 0  9996
2 57640  43.0001 247.1404 0001222 264.1973  95.8730 15.02527912 28335
STARLINK-30312          
1 57641U 23122K   24042.92206293  .00013618  00000+0  10202-2 0  9993
2 57641  43.0016 246.7536 0002138 260.1359  99.9242 15.02571834 28340
STARLINK-30263          
1 57642U 23122L   24041.98471338  .00004657  00000+0  35953-3 0  9997
2 57642  43.0032 251.7603 0001436 264.1470  95.9208 15.02540538 28208
STARLINK-30280          
1 57643U 23122M   24042.90540621  .00002748  00000+0  21835-3 0  9996
2 57643  43.0014 246.6297 0001316 279.7103  80.3591 15.02550187 28320
STARLINK-30247          
1 57644U 23122N   24042.77578542  .00001729  00000+0  14304-3 0  9996
2 57644  43.0023 247.3819 0001281 285.1280  74.9420 15.02539669 28329
STARLINK-30277          
1 57645U 23122P   24042.97855093  .00000312  00000+0  38174-4 0  9997
2 57645  43.0007 246.3195 0001156 282.6726  77.3987 15.02535987 28342
STARLINK-30265          
1 57646U 23122Q   24042.98520077  .00006043  00000+0  46180-3 0  9992
2 57646  43.0037 246.3668 0001580 272.1052  87.9610 15.02554054 28333
STARLINK-30286          
1 57647U 23122R   24042.90208142  .00002135  00000+0  17304-3 0  9995
2 57647  43.0009 246.6029 0001290 262.6290  97.4405 15.02544252 28341
STARLINK-30243          
1 57648U 23122S   24043.02171197  .00004577  00000+0  35359-3 0  9991
2 57648  43.0006 245.7904 0002344 274.0039  86.0535 15.02548302 28359
STARLINK-30293          
1 57649U 23122T   24042.81658975  .00062412  00000+0  13304-2 0  9999
2 57649  42.9935 207.4691 0021847 304.3543  55.5248 15.43812968 28790
STARLINK-30299          
1 57650U 23122U   24042.89875590  .00001530  00000+0  12832-3 0  9993
2 57650  43.0014 246.5796 0001173 282.7089  77.3622 15.02538372 28344
STARLINK-30294          
1 57651U 23122V   24042.88794675  .00002402  00000+0  19278-3 0  9997
2 57651  43.0015 233.7752 0001479 271.0998  88.9675 15.02544998 28498
STARLINK-30276          
1 57652U 23122W   24043.02503710  .00003373  00000+0  26458-3 0  9999
2 57652  43.0062 245.8048 0002580 258.3691 101.6862 15.02547286 28343
STARLINK-30289          
1 57653U 23122X   24042.89571221  .00011089  00000+0  83454-3 0  9998
2 57653  43.0001 233.7842 0001290 268.0358  92.0336 15.02542429 28488
STARLINK-30267          
1 57663U 23124A   24043.48124695  .00005268  00000+0  26544-3 0  9995
2 57663  53.0572 116.7054 0002007 100.8018 259.3202 15.18744812 27690
STARLINK-30302          
1 57664U 23124B   24043.48492577 -.00007082  00000+0 -32235-3 0  9995
2 57664  53.0645 118.1499 0001492  99.1422 260.9742 15.18700478 27818
STARLINK-30298          
1 57665U 23124C   24043.48710906  .00014762  00000+0  71570-3 0  9991
2 57665  53.0611 118.1507 0001721  98.0040 262.1150 15.18743121 27810
STARLINK-30301          
1 57666U 23124D   24043.42531050  .00004648  00000+0  23603-3 0  9993
2 57666  53.0585  93.9164 0001915  99.5393 260.5818 15.18742311 28142
STARLINK-30275          
1 57667U 23124E   24043.48274365 -.00004786  00000+0 -21285-3 0  9992
2 57667  53.0559 118.1229 0001650 100.6565 259.4615 15.18697868 27458
STARLINK-30278          
1 57668U 23124F   24043.48052677  .00002842  00000+0  15032-3 0  9995
2 57668  53.0628 118.1125 0001720 103.1452 256.9734 15.18728349 27815
STARLINK-30271          
1 57669U 23124G   24043.47614009  .00033346  00000+0  15928-2 0  9994
2 57669  53.0600 118.0879 0001719  84.1768 275.9422 15.18759591 27815
STARLINK-30322          
1 57670U 23124H   24043.45638685 -.00000556  00000+0 -11300-4 0  9991
2 57670  53.0542 117.2677 0001594 118.9042 241.2113 15.18729505 27478
STARLINK-30296          
1 57671U 23124J   24043.43326458  .00004967  00000+0  25120-3 0  9994
2 57671  53.0547 115.6895 0001943 110.7494 249.3709 15.18742288 27548
STARLINK-30274          
1 57672U 23124K   24043.51213711  .00054530  00000+0  25868-2 0  9990
2 57672  53.0569 117.6021 0001306 102.2921 257.8219 15.18769650 27676
STARLINK-30316          
1 57673U 23124L   24043.51124483 -.00002747  00000+0 -11563-3 0  9991
2 57673  53.0535 117.5881 0001996 144.8410 215.2716 15.18710193 27525
STARLINK-30314          
1 57674U 23124M   24043.46736900  .00026370  00000+0  12641-2 0  9992
2 57674  53.0579 118.0349 0001806  77.8830 282.2366 15.18755174 27455
STARLINK-30317          
1 57675U 23124N   24043.46956655  .00003268  00000+0  17055-3 0  9990
2 57675  53.0576 118.0483 0001914  91.9982 268.1232 15.18727355 27812
STARLINK-30313          
1 57676U 23124P   24043.50904618  .00017322  00000+0  83672-3 0  9992
2 57676  53.0582 117.5843 0002255  64.5396 295.5832 15.18748862 27825
STARLINK-30303          
1 57677U 23124Q   24042.45392488  .00002065  00000+0  11340-3 0  9993
2 57677  53.0590 122.3896 0002246 118.7604 241.3617 15.18725495 27660
STARLINK-30320          
1 57678U 23124R   24043.46297930  .00003071  00000+0  16116-3 0  9996
2 57678  53.0573 118.0122 0002323  59.3029 300.8194 15.18736333 27814
STARLINK-30321          
1 57679U 23124S   24043.45200892  .00002781  00000+0  14736-3 0  9990
2 57679  53.0580 117.9373 0001999  76.3935 283.7282 15.18742272 27357
STARLINK-30283          
1 57680U 23124T   24043.46515568  .00004115  00000+0  21079-3 0  9993
2 57680  53.0539 117.3222 0002318  95.1394 264.9865 15.18728390 27829
